0 BEIDOU M3
1 38250U 12018A   13281.72761369  .00000045  00000-0  10000-3 0  4590
2 38250 055.3866 099.5824 0024714 187.8649 158.3987 01.86233716  9974
0 BEIDOU M3
1 38250U 12018A   13282.76419116  .00000047  00000-0  10000-3 0  4609
2 38250 055.3872 099.5474 0024775 187.8130 133.4343 01.86233710  9990
0 BEIDOU M3
1 38250U 12018A   13284.04062765  .00000052  00000-0  10000-3 0  4613
2 38250 055.3878 099.5044 0024805 187.8181 269.2291 01.86233710 10025
0 BEIDOU M3
1 38250U 12018A   13286.19133623  .00000061  00000-0  10000-3 0  4646
2 38250 055.3890 099.4315 0024921 187.7915 271.2198 01.86233699 10061
0 BEIDOU M3
1 38250U 12018A   13287.45611686  .00000060  00000-0  10000-3 0  4656
2 38250 055.3926 099.3904 0025205 187.9661 039.0222 01.86233313 10083
0 BEIDOU M3
1 38250U 12018A   13288.12608766  .00000057  00000-0  10000-3 0  4663
2 38250 055.3902 099.3661 0024960 187.8233 128.3613 01.86233699 10092
0 BEIDOU M3
1 38250U 12018A   13289.30108138  .00000046  00000-0  10000-3 0  4671
2 38250 055.3909 099.3264 0025033 187.8333 196.1367 01.86233682 10126
0 BEIDOU M3
1 38250U 12018A   13290.33921744  .00000000  00000-0  10000-3 0  4694
2 38250 055.3921 099.2909 0025226 188.0280 171.9655 01.86232340 10146
0 BEIDOU M3
1 38250U 12018A   13290.69776168  .00000029  00000-0  10000-3 0  4681
2 38250 055.3917 099.2793 0025052 187.8739 052.5137 01.86233665 10145
0 BEIDOU M3
1 38250U 12018A   13292.22137072  .00000012  00000-0  10000-3 0  4690
2 38250 055.3925 099.2277 0025053 187.9088 353.9967 01.86233636 10170
0 BEIDOU M3
1 38250U 12018A   13293.35810439  .00000005  00000-0  10000-3 0  4704
2 38250 055.3931 099.1893 0025054 187.9022 036.1362 01.86233599 10198
0 BEIDOU M3
1 38250U 12018A   13294.37389301  .00000004  00000-0  10000-3 0  4716
2 38250 055.3937 099.1549 0025053 187.9239 357.1595 01.86233583 10211
0 BEIDOU M3
1 38250U 12018A   13295.58171515  .00000010  00000-0  10000-3 0  4724
2 38250 055.3943 099.1140 0025058 187.9502 086.9292 01.86233576 10238
